NORAD_CAT_ID,OBJECT_NAME,OBJECT_TYPE,EPOCH,MEAN_MOTION,ECCENTRICITY,INCLINATION,RA_OF_ASC_NODE,ARG_OF_PERICENTER,MEAN_ANOMALY,BSTAR,MEAN_MOTION_DOT,MEAN_MOTION_DDOT,TLE_LINE0,TLE_LINE1,TLE_LINE2,SEMIMAJOR_AXIS,PERIOD,APOGEE,PERIGEE,DECAYED
51755.0,STARLINK-3460,PAYLOAD,2024-06-23 04:22:16,15.08836793,0.0001023,53.2167,232.6466,92.5917,267.5192,0.00010287,1.35e-05,0.0,0 STARLINK-3460,1 51755U 22016AT  24175.18213599  .00001350  00000-0  10287-3 0  9991,2 51755  53.2167 232.6466 0001023  92.5917 267.5192 15.08836793130542,6917.89,95.438,540.463,539.047,0.0
51755.0,STARLINK-3460,PAYLOAD,2024-06-23 13:54:35,15.088354,9.93e-05,53.2164,230.862,93.1678,266.9428,5.6892e-05,6.18e-06,0.0,0 STARLINK-3460,1 51755U 22016AT  24175.57957824  .00000618  00000-0  56892-4 0  9999,2 51755  53.2164 230.8620 0000993  93.1678 266.9428 15.08835400129487,6917.894,95.438,540.446,539.073,0.0
51755.0,STARLINK-3460,PAYLOAD,2024-06-24 10:34:35,15.08840875,0.000102,53.2165,226.9965,98.5564,261.5544,9.4782e-05,1.221e-05,0.0,0 STARLINK-3460,1 51755U 22016AT  24176.44069441  .00001221  00000-0  94782-4 0  9996,2 51755  53.2165 226.9965 0001020  98.5564 261.5544 15.08840875130733,6917.878,95.437,540.448,539.037,0.0
51755.0,STARLINK-3460,PAYLOAD,2024-06-25 10:25:23,15.08837034,0.0001023,53.216,222.536,102.6626,257.4481,9.7001e-05,1.256e-05,0.0,0 STARLINK-3460,1 51755U 22016AT  24177.43429786  .00001256  00000-0  97001-4 0  9993,2 51755  53.2160 222.5360 0001023 102.6626 257.4481 15.08837034130881,6917.889,95.438,540.462,539.047,0.0
51755.0,STARLINK-3460,PAYLOAD,2024-06-26 10:16:10,15.08844082,0.0001026,53.2157,218.075,96.4541,263.6568,9.2727e-05,1.188e-05,0.0,0 STARLINK-3460,1 51755U 22016AT  24178.42789407  .00001188  00000-0  92727-4 0  9996,2 51755  53.2157 218.0750 0001026  96.4541 263.6568 15.08844082129917,6917.868,95.437,540.443,539.023,0.0
51755.0,STARLINK-3460,PAYLOAD,2024-06-27 10:06:57,15.08837953,0.0001066,53.2155,213.6136,84.7942,275.3172,5.5184e-05,5.91e-06,0.0,0 STARLINK-3460,1 51755U 22016AT  24179.42149966  .00000591  00000-0  55184-4 0  9990,2 51755  53.2155 213.6136 0001066  84.7942 275.3172 15.08837953131185,6917.887,95.438,540.489,539.014,0.0
51755.0,STARLINK-3460,PAYLOAD,2024-06-28 08:22:21,15.08844972,0.0001088,53.2154,209.4515,81.1476,278.9639,8.1008e-05,1.002e-05,0.0,0 STARLINK-3460,1 51755U 22016AT  24180.34885578  .00001002  00000-0  81008-4 0  9991,2 51755  53.2154 209.4515 0001088  81.1476 278.9639 15.08844972130203,6917.865,95.437,540.483,538.978,0.0
51755.0,STARLINK-3460,PAYLOAD,2024-06-29 05:02:21,15.08843858,0.0001093,53.2152,205.586,79.1761,280.9354,0.00015479,2.177e-05,0.0,0 STARLINK-3460,1 51755U 22016AT  24181.20997411  .00002177  00000-0  15479-3 0  9999,2 51755  53.2152 205.5860 0001093  79.1761 280.9354 15.08843858131458,6917.869,95.437,540.49,538.977,0.0
51755.0,STARLINK-3460,PAYLOAD,2024-06-29 11:23:54,15.08844363,0.0001113,53.2145,204.3965,76.9203,283.1913,0.00018563,2.668e-05,0.0,0 STARLINK-3460,1 51755U 22016AT  24181.47493651  .00002668  00000-0  18563-3 0  9997,2 51755  53.2145 204.3965 0001113  76.9203 283.1913 15.08844363130370,6917.867,95.437,540.502,538.962,0.0
51755.0,STARLINK-3460,PAYLOAD,2024-06-30 04:53:09,15.08838058,0.0001122,53.2143,201.1231,83.7996,276.3124,1.2079e-05,-9.6e-07,0.0,0 STARLINK-3460,1 51755U 22016AT  24182.20357948 -.00000096  00000-0  12079-4 0  9998,2 51755  53.2143 201.1231 0001122  83.7996 276.3124 15.08838058131603,6917.886,95.438,540.528,538.975,0.0
51755.0,STARLINK-3460,PAYLOAD,2024-06-30 11:14:42,15.08833453,0.0001092,53.2153,199.9342,85.816,274.2957,-1.9757e-05,-6.02e-06,0.0,0 STARLINK-3460,1 51755U 22016AT  24182.46854457 -.00000602  00000-0 -19757-4 0  9997,2 51755  53.2153 199.9342 0001092  85.8160 274.2957 15.08833453130528,6917.9,95.438,540.521,539.01,0.0
51755.0,STARLINK-3460,PAYLOAD,2024-07-01 07:54:42,15.08837097,0.0001058,53.215,196.0705,88.4782,271.6331,3.2371e-05,2.27e-06,0.0,0 STARLINK-3460,1 51755U 22016AT  24183.32966189  .00000227  00000-0  32371-4 0  9997,2 51755  53.2150 196.0705 0001058  88.4782 271.6331 15.08837097131770,6917.889,95.438,540.486,539.022,0.0
51755.0,STARLINK-3460,PAYLOAD,2024-07-01 17:27:01,15.08839253,0.0001052,53.2152,194.2859,86.9155,273.1957,7.3897e-05,8.88e-06,0.0,0 STARLINK-3460,1 51755U 22016AT  24183.72709966  .00000888  00000-0  73897-4 0  9990,2 51755  53.2152 194.2859 0001052  86.9155 273.1957 15.08839253130713,6917.883,95.438,540.475,539.02,0.0
51755.0,STARLINK-3460,PAYLOAD,2024-07-02 07:45:30,15.08834411,0.0001127,53.2158,191.6102,89.3684,270.7437,9.2349e-05,1.182e-05,0.0,0 STARLINK-3460,1 51755U 22016AT  24184.32326450  .00001182  00000-0  92349-4 0  9991,2 51755  53.2158 191.6102 0001127  89.3684 270.7437 15.08834411130805,6917.897,95.438,540.542,538.983,0.0
51755.0,STARLINK-3460,PAYLOAD,2024-07-02 17:17:48,15.0883664,0.0001144,53.216,189.8262,88.9514,271.1609,8.6722e-05,1.093e-05,0.0,0 STARLINK-3460,1 51755U 22016AT  24184.72070422  .00001093  00000-0  86722-4 0  9999,2 51755  53.2160 189.8262 0001144  88.9514 271.1609 15.08836640131982,6917.891,95.438,540.547,538.964,0.0
51755.0,STARLINK-3460,PAYLOAD,2024-07-03 17:08:36,15.08839214,0.0001172,53.2163,185.366,89.7025,270.4102,4.1232e-05,3.68e-06,0.0,0 STARLINK-3460,1 51755U 22016AT  24185.71430614  .00000368  00000-0  41232-4 0  9993,2 51755  53.2163 185.3660 0001172  89.7025 270.4102 15.08839214131019,6917.883,95.438,540.559,538.937,0.0
51755.0,STARLINK-3460,PAYLOAD,2024-07-04 04:16:17,15.08841642,0.0001152,53.2162,183.2838,89.9042,270.2082,8.0815e-05,9.99e-06,0.0,0 STARLINK-3460,1 51755U 22016AT  24186.17798304  .00000999  00000-0  80815-4 0  9997,2 51755  53.2162 183.2838 0001152  89.9042 270.2082 15.08841642132206,6917.875,95.437,540.537,538.943,0.0
51755.0,STARLINK-3460,PAYLOAD,2024-07-04 09:02:27,15.08843619,0.0001148,53.2161,182.3914,89.1715,270.9409,8.6148e-05,1.084e-05,0.0,0 STARLINK-3460,1 51755U 22016AT  24186.37670141  .00001084  00000-0  86148-4 0  9998,2 51755  53.2161 182.3914 0001148  89.1715 270.9409 15.08843619131119,6917.869,95.437,540.528,538.94,0.0
51755.0,STARLINK-3460,PAYLOAD,2024-07-04 23:20:55,15.08841101,0.0001103,53.2156,179.7149,88.6811,271.4308,0.00010225,1.34e-05,0.0,0 STARLINK-3460,1 51755U 22016AT  24186.97286119  .00001340  00000-0  10225-3 0  9999,2 51755  53.2156 179.7149 0001103  88.6811 271.4308 15.08841101131203,6917.877,95.437,540.505,538.979,0.0
51755.0,STARLINK-3460,PAYLOAD,2024-07-05 05:42:27,15.08839753,0.0001122,53.2159,178.5251,89.7675,270.3445,6.6413e-05,7.69e-06,0.0,0 STARLINK-3460,1 51755U 22016AT  24187.23782343  .00000769  00000-0  66413-4 0  9994,2 51755  53.2159 178.5251 0001122  89.7675 270.3445 15.08839753132366,6917.881,95.438,540.522,538.97,0.0
51755.0,STARLINK-3460,PAYLOAD,2024-07-05 08:53:14,15.08841407,0.0001122,53.216,177.93,89.7124,270.3996,7.7095e-05,9.39e-06,0.0,0 STARLINK-3460,1 51755U 22016AT  24187.37030197  .00000939  00000-0  77095-4 0  9999,2 51755  53.2160 177.9300 0001122  89.7124 270.3996 15.08841407131263,6917.876,95.437,540.517,538.965,0.0
51755.0,STARLINK-3460,PAYLOAD,2024-07-05 16:50:09,15.08843236,0.000112,53.216,176.4432,89.3845,270.7275,7.3701e-05,8.85e-06,0.0,0 STARLINK-3460,1 51755U 22016AT  24187.70150042  .00000885  00000-0  73701-4 0  9998,2 51755  53.2160 176.4432 0001120  89.3845 270.7275 15.08843236131319,6917.87,95.437,540.51,538.961,0.0
51755.0,STARLINK-3460,PAYLOAD,2024-07-06 05:33:15,15.0884081,0.0001206,53.2164,174.0646,94.2612,265.8517,8.5752e-07,-2.74e-06,0.0,0 STARLINK-3460,1 51755U 22016AT  24188.23142369 -.00000274  00000-0  85752-6 0  9994,2 51755  53.2164 174.0646 0001206  94.2612 265.8517 15.08840810131393,6917.878,95.438,540.577,538.909,0.0
51755.0,STARLINK-3460,PAYLOAD,2024-07-06 16:40:56,15.08842845,0.0001216,53.2167,171.983,99.7679,260.3451,1.662e-06,-2.61e-06,0.0,0 STARLINK-3460,1 51755U 22016AT  24188.69510081 -.00000261  00000-0  16620-5 0  9997,2 51755  53.2167 171.9830 0001216  99.7679 260.3451 15.08842845132580,6917.872,95.437,540.578,538.895,0.0
51755.0,STARLINK-3460,PAYLOAD,2024-07-07 08:34:48,15.08838513,0.000129,53.2167,169.0097,94.5594,265.5546,2.1166e-05,4.9e-07,0.0,0 STARLINK-3460,1 51755U 22016AT  24189.35750356  .00000049  00000-0  21166-4 0  9995,2 51755  53.2167 169.0097 0001290  94.5594 265.5546 15.08838513131560,6917.885,95.438,540.642,538.858,0.0
51755.0,STARLINK-3460,PAYLOAD,2024-07-08 03:39:25,15.08837866,0.0001249,53.2164,165.4413,93.1356,266.9779,4.7039e-05,4.61e-06,0.0,0 STARLINK-3460,1 51755U 22016AT  24190.15238417  .00000461  00000-0  47039-4 0  9999,2 51755  53.2164 165.4413 0001249  93.1356 266.9779 15.08837866132805,6917.887,95.438,540.616,538.888,0.0
51755.0,STARLINK-3460,PAYLOAD,2024-07-08 08:25:35,15.08839245,0.000128,53.2167,164.5492,94.548,265.5658,4.5742e-05,4.4e-06,0.0,0 STARLINK-3460,1 51755U 22016AT  24190.35110306  .00000440  00000-0  45742-4 0  9993,2 51755  53.2167 164.5492 0001280  94.5480 265.5658 15.08839245131716,6917.883,95.438,540.633,538.862,0.0
51755.0,STARLINK-3460,PAYLOAD,2024-07-08 14:47:07,15.08842914,0.0001287,53.2171,163.3599,94.6819,265.432,6.7347e-05,7.84e-06,0.0,0 STARLINK-3460,1 51755U 22016AT  24190.61606004  .00000784  00000-0  67347-4 0  9993,2 51755  53.2171 163.3599 0001287  94.6819 265.4320 15.08842914131756,6917.871,95.437,540.627,538.846,0.0
51755.0,STARLINK-3460,PAYLOAD,2024-07-09 05:05:36,15.08832028,0.0001303,53.217,160.6857,95.954,264.16,5.8731e-06,-1.94e-06,0.0,0 STARLINK-3460,1 51755U 22016AT  24191.21222984 -.00000194  00000-0  58731-5 0  9995,2 51755  53.2170 160.6857 0001303  95.9540 264.1600 15.08832028132962,6917.905,95.438,540.671,538.868,0.0
51755.0,STARLINK-3460,PAYLOAD,2024-07-09 14:37:54,15.0884194,0.0001336,53.217,158.9013,97.6769,262.4375,2.9028e-05,1.74e-06,0.0,0 STARLINK-3460,1 51755U 22016AT  24191.60966398  .00000174  00000-0  29028-4 0  9995,2 51755  53.2170 158.9013 0001336  97.6769 262.4375 15.08841940131900,6917.874,95.437,540.664,538.815,0.0
